[{"OBJECT_NAME":"NUSAT-44 (MARIA MITCHELL)","OBJECT_ID":"2024-043AA","EPOCH":"2026-03-09T22:12:18.524160","MEAN_MOTION":15.29764305,"ECCENTRICITY":0.0007331,"INCLINATION":97.5299,"RA_OF_ASC_NODE":207.7691,"ARG_OF_PERICENTER":214.9017,"MEAN_ANOMALY":145.1743,"EPHEMERIS_TYPE":0,"CLASSIFICATION_TYPE":"U","NORAD_CAT_ID":59122,"ELEMENT_SET_NO":999,"REV_AT_EPOCH":11209,"BSTAR":0.00061063193,"MEAN_MOTION_DOT":0.00017562,"MEAN_MOTION_DDOT":0},{"OBJECT_NAME":"STARLINK-34656","OBJECT_ID":"2025-161T","EPOCH":"2026-03-09T22:22:12.869760","MEAN_MOTION":15.30177763,"ECCENTRICITY":0.00012204,"INCLINATION":53.1587,"RA_OF_ASC_NODE":293.3117,"ARG_OF_PERICENTER":71.4822,"MEAN_ANOMALY":288.6311,"EPHEMERIS_TYPE":0,"CLASSIFICATION_TYPE":"U","NORAD_CAT_ID":65032,"ELEMENT_SET_NO":999,"REV_AT_EPOCH":3536,"BSTAR":0.0009338293,"MEAN_MOTION_DOT":0.00027381,"MEAN_MOTION_DDOT":0}]
